{"type": "FeatureCollection", "features": [ {"type": "Feature", "properties": {"norad_id": 36274, "name": "FENGYUN 1C DEB", "group": "fengyun-1c-debris", "lat": -6.060132949011513, "lon": 65.86276310398308, "alt_km": 848.3939672181423, "timestamp": "2025-12-16T13:52:37.811815+00:00", "meta": {"OBJECT_NAME": "FENGYUN 1C DEB", "OBJECT_ID": "1999-025DXB", "EPOCH": "2025-12-09T11:35:55.514688", "MEAN_MOTION": 14.23402311, "ECCENTRICITY": 0.00622561, "INCLINATION": 99.139, "RA_OF_ASC_NODE": 57.5181, "ARG_OF_PERICENTER": 239.4806, "MEAN_ANOMALY": 136.1937, "EPHEMERIS_TYPE": 0, "CLASSIFICATION_TYPE": "U", "NORAD_CAT_ID": 36274, "ELEMENT_SET_NO": 999, "REV_AT_EPOCH": 62939, "BSTAR": 0.0044809329, "MEAN_MOTION_DOT": 0.00010342, "MEAN_MOTION_DDOT": 0}, "tle": {"line1": "1 36274U 99025DXB 25343.48328142  .00010342  00000+0  44809-2 0  9992", "line2": "2 36274  99.1390  57.5181 0062256 239.4806 136.1937 14.23402311629395"}}, "geometry": {"type": "Point", "coordinates": [65.86276310398308, -6.060132949011513]}}, {"type": "Feature", "properties": {"norad_id": 36278, "name": "FENGYUN 1C DEB", "group": "fengyun-1c-debris", "lat": 42.169889370270546, "lon": 97.34122618835693, "alt_km": 865.6069726497453, "timestamp": "2025-12-16T13:52:37.811824+00:00", "meta": {"OBJECT_NAME": "FENGYUN 1C DEB", "OBJECT_ID": "1999-025DXF", "EPOCH": "2025-12-14T12:05:44.621088", "MEAN_MOTION": 14.17383714, "ECCENTRICITY": 0.00607539, "INCLINATION": 99.124, "RA_OF_ASC_NODE": 266.8428, "ARG_OF_PERICENTER": 285.9616, "MEAN_ANOMALY": 73.487, "EPHEMERIS_TYPE": 0, "CLASSIFICATION_TYPE": "U", "NORAD_CAT_ID": 36278, "ELEMENT_SET_NO": 999, "REV_AT_EPOCH": 93501, "BSTAR": 0.0005362751, "MEAN_MOTION_DOT": 1.058e-05, "MEAN_MOTION_DDOT": 0}, "tle": {"line1": "1 36278U 99025DXF 25348.50398867  .00001058  00000+0  53628-3 0  9999", "line2": "2 36278  99.1240 266.8428 0060753 285.9616  73.4870 14.17383714935013"}}, "geometry": {"type": "Point", "coordinates": [97.34122618835693, 42.169889370270546]}}, {"type": "Feature", "properties": {"norad_id": 36279, "name": "FENGYUN 1C DEB", "group": "fengyun-1c-debris", "lat": 53.51210419383244, "lon": 160.1764425646004, "alt_km": 830.9410861631259, "timestamp": "2025-12-16T13:52:37.811834+00:00", "meta": {"OBJECT_NAME": "FENGYUN 1C DEB", "OBJECT_ID": "1999-025DXG", "EPOCH": "2025-12-13T03:49:01.258176", "MEAN_MOTION": 14.1472808, "ECCENTRICITY": 0.00629293, "INCLINATION": 98.5609, "RA_OF_ASC_NODE": 325.1462, "ARG_OF_PERICENTER": 54.1231, "MEAN_ANOMALY": 306.5764, "EPHEMERIS_TYPE": 0, "CLASSIFICATION_TYPE": "U", "NORAD_CAT_ID": 36279, "ELEMENT_SET_NO": 999, "REV_AT_EPOCH": 89045, "BSTAR": 0.00020141658, "MEAN_MOTION_DOT": 3.54e-06, "MEAN_MOTION_DDOT": 0}, "tle": {"line1": "1 36279U 99025DXG 25347.15904234  .00000354  00000+0  20142-3 0  9994", "line2": "2 36279  98.5609 325.1462 0062929  54.1231 306.5764 14.14728080890455"}}, "geometry": {"type": "Point", "coordinates": [160.1764425646004, 53.51210419383244]}}, {"type": "Feature", "properties": {"norad_id": 36280, "name": "FENGYUN 1C DEB", "group": "fengyun-1c-debris", "lat": 80.01767480253882, "lon": -99.26824869604243, "alt_km": 817.7128937154603, "timestamp": "2025-12-16T13:52:37.811844+00:00", "meta": {"OBJECT_NAME": "FENGYUN 1C DEB", "OBJECT_ID": "1999-025DXH", "EPOCH": "2025-12-14T08:42:07.968672", "MEAN_MOTION": 14.09745796, "ECCENTRICITY": 0.00631161, "INCLINATION": 98.7676, "RA_OF_ASC_NODE": 17.3137, "ARG_OF_PERICENTER": 60.9601, "MEAN_ANOMALY": 315.1021, "EPHEMERIS_TYPE": 0, "CLASSIFICATION_TYPE": "U", "NORAD_CAT_ID": 36280, "ELEMENT_SET_NO": 999, "REV_AT_EPOCH": 86377, "BSTAR": 0.0011193249, "MEAN_MOTION_DOT": 1.96e-05, "MEAN_MOTION_DDOT": 0}, "tle": {"line1": "1 36280U 99025DXH 25348.36259223  .00001960  00000+0  11193-2 0  9990", "line2": "2 36280  98.7676  17.3137 0063116  60.9601 315.1021 14.09745796863771"}}, "geometry": {"type": "Point", "coordinates": [-99.26824869604243, 80.01767480253882]}}, {"type": "Feature", "properties": {"norad_id": 36281, "name": "FENGYUN 1C DEB", "group": "fengyun-1c-debris", "lat": 68.50662489180579, "lon": -112.14759295393534, "alt_km": 840.6457882251179, "timestamp": "2025-12-16T13:52:37.811854+00:00", "meta": {"OBJECT_NAME": "FENGYUN 1C DEB", "OBJECT_ID": "1999-025DXJ", "EPOCH": "2025-12-15T00:28:06.873600", "MEAN_MOTION": 13.6026408, "ECCENTRICITY": 0.02905382, "INCLINATION": 99.2586, "RA_OF_ASC_NODE": 270.8462, "ARG_OF_PERICENTER": 104.9585, "MEAN_ANOMALY": 258.3912, "EPHEMERIS_TYPE": 0, "CLASSIFICATION_TYPE": "U", "NORAD_CAT_ID": 36281, "ELEMENT_SET_NO": 999, "REV_AT_EPOCH": 84548, "BSTAR": 0.002806131, "MEAN_MOTION_DOT": 2.741e-05, "MEAN_MOTION_DDOT": 0}, "tle": {"line1": "1 36281U 99025DXJ 25349.01952400  .00002741  00000+0  28061-2 0  9991", "line2": "2 36281  99.2586 270.8462 0290538 104.9585 258.3912 13.60264080845488"}}, "geometry": {"type": "Point", "coordinates": [-112.14759295393534, 68.50662489180579]}}, {"type": "Feature", "properties": {"norad_id": 36283, "name": "FENGYUN 1C DEB", "group": "fengyun-1c-debris", "lat": 59.41962519138032, "lon": 152.84055154841803, "alt_km": 533.3622811554969, "timestamp": "2025-12-16T13:52:37.811864+00:00", "meta": {"OBJECT_NAME": "FENGYUN 1C DEB", "OBJECT_ID": "1999-025DXL", "EPOCH": "2025-12-15T15:02:17.579040", "MEAN_MOTION": 15.06429973, "ECCENTRICITY": 0.00674448, "INCLINATION": 99.4211, "RA_OF_ASC_NODE": 315.3599, "ARG_OF_PERICENTER": 41.5581, "MEAN_ANOMALY": 319.0739, "EPHEMERIS_TYPE": 0, "CLASSIFICATION_TYPE": "U", "NORAD_CAT_ID": 36283, "ELEMENT_SET_NO": 999, "REV_AT_EPOCH": 66709, "BSTAR": 0.00125131, "MEAN_MOTION_DOT": 0.0001938, "MEAN_MOTION_DDOT": 0}, "tle": {"line1": "1 36283U 99025DXL 25349.62659235  .00019380  00000+0  12513-2 0  9992", "line2": "2 36283  99.4211 315.3599 0067444  41.5581 319.0739 15.06429973667090"}}, "geometry": {"type": "Point", "coordinates": [152.84055154841803, 59.41962519138032]}}, {"type": "Feature", "properties": {"norad_id": 36644, "name": "FENGYUN 1C DEB", "group": "fengyun-1c-debris", "lat": -65.58788813195096, "lon": -70.407989995024, "alt_km": 991.7608197399668, "timestamp": "2025-12-16T13:52:37.811874+00:00", "meta": {"OBJECT_NAME": "FENGYUN 1C DEB", "OBJECT_ID": "1999-025DXN", "EPOCH": "2025-12-06T15:56:19.275936", "MEAN_MOTION": 13.59167664, "ECCENTRICITY": 0.02857814, "INCLINATION": 98.4234, "RA_OF_ASC_NODE": 120.1104, "ARG_OF_PERICENTER": 196.1478, "MEAN_ANOMALY": 163.0413, "EPHEMERIS_TYPE": 0, "CLASSIFICATION_TYPE": "U", "NORAD_CAT_ID": 36644, "ELEMENT_SET_NO": 999, "REV_AT_EPOCH": 61485, "BSTAR": 0.0026178612, "MEAN_MOTION_DOT": 2.485e-05, "MEAN_MOTION_DDOT": 0}, "tle": {"line1": "1 36644U 99025DXN 25340.66411199  .00002485  00000+0  26179-2 0  9994", "line2": "2 36644  98.4234 120.1104 0285781 196.1478 163.0413 13.59167664614851"}}, "geometry": {"type": "Point", "coordinates": [-70.407989995024, -65.58788813195096]}}, {"type": "Feature", "properties": {"norad_id": 36647, "name": "FENGYUN 1C DEB", "group": "fengyun-1c-debris", "lat": 83.75282487839127, "lon": 28.53890114589596, "alt_km": 1091.7692880437717, "timestamp": "2025-12-16T13:52:37.811884+00:00", "meta": {"OBJECT_NAME": "FENGYUN 1C DEB", "OBJECT_ID": "1999-025DXR", "EPOCH": "2025-12-12T16:03:45.149184", "MEAN_MOTION": 13.88818292, "ECCENTRICITY": 0.02395033, "INCLINATION": 96.1208, "RA_OF_ASC_NODE": 127.3787, "ARG_OF_PERICENTER": 300.0828, "MEAN_ANOMALY": 57.6784, "EPHEMERIS_TYPE": 0, "CLASSIFICATION_TYPE": "U", "NORAD_CAT_ID": 36647, "ELEMENT_SET_NO": 999, "REV_AT_EPOCH": 30411, "BSTAR": 0.003742639, "MEAN_MOTION_DOT": 5.663e-05, "MEAN_MOTION_DDOT": 0}, "tle": {"line1": "1 36647U 99025DXR 25346.66927256  .00005663  00000+0  37426-2 0  9997", "line2": "2 36647  96.1208 127.3787 0239503 300.0828  57.6784 13.88818292304118"}}, "geometry": {"type": "Point", "coordinates": [28.53890114589596, 83.75282487839127]}}, {"type": "Feature", "properties": {"norad_id": 36652, "name": "FENGYUN 1C DEB", "group": "fengyun-1c-debris", "lat": 12.264404580908309, "lon": 70.84466233448723, "alt_km": 785.4224788532038, "timestamp": "2025-12-16T13:52:37.811894+00:00", "meta": {"OBJECT_NAME": "FENGYUN 1C DEB", "OBJECT_ID": "1999-025DXW", "EPOCH": "2025-12-13T11:33:38.698560", "MEAN_MOTION": 14.22826498, "ECCENTRICITY": 0.00505856, "INCLINATION": 98.9411, "RA_OF_ASC_NODE": 69.6637, "ARG_OF_PERICENTER": 351.0783, "MEAN_ANOMALY": 8.949, "EPHEMERIS_TYPE": 0, "CLASSIFICATION_TYPE": "U", "NORAD_CAT_ID": 36652, "ELEMENT_SET_NO": 999, "REV_AT_EPOCH": 64335, "BSTAR": 0.0026137757, "MEAN_MOTION_DOT": 5.903e-05, "MEAN_MOTION_DDOT": 0}, "tle": {"line1": "1 36652U 99025DXW 25347.48169790  .00005903  00000+0  26138-2 0  9990", "line2": "2 36652  98.9411  69.6637 0050585 351.0783   8.9490 14.22826498643350"}}, "geometry": {"type": "Point", "coordinates": [70.84466233448723, 12.264404580908309]}}, {"type": "Feature", "properties": {"norad_id": 36657, "name": "FENGYUN 1C DEB", "group": "fengyun-1c-debris", "lat": 61.864550355683434, "lon": 123.97437231603612, "alt_km": 595.3266445575064, "timestamp": "2025-12-16T13:52:37.811904+00:00", "meta": {"OBJECT_NAME": "FENGYUN 1C DEB", "OBJECT_ID": "1999-025DYB", "EPOCH": "2025-12-15T16:17:35.899008", "MEAN_MOTION": 14.65547343, "ECCENTRICITY": 0.01057726, "INCLINATION": 99.4128, "RA_OF_ASC_NODE": 141.0178, "ARG_OF_PERICENTER": 58.1622, "MEAN_ANOMALY": 302.9822, "EPHEMERIS_TYPE": 0, "CLASSIFICATION_TYPE": "U", "NORAD_CAT_ID": 36657, "ELEMENT_SET_NO": 999, "REV_AT_EPOCH": 66299, "BSTAR": 0.00037231163, "MEAN_MOTION_DOT": 2.126e-05, "MEAN_MOTION_DDOT": 0}, "tle": {"line1": "1 36657U 99025DYB 25349.67888772  .00002126  00000+0  37231-3 0  9997", "line2": "2 36657  99.4128 141.0178 0105772  58.1622 302.9822 14.65547343662990"}}, "geometry": {"type": "Point", "coordinates": [123.97437231603612, 61.864550355683434]}}]}